STARLINK-37113          
1 68318U 26057AA  26085.25002315 -.00843818  26836-3 -94326-3 0  9994
2 68318  97.2815 208.1375 0001204  50.7930  55.5155 16.09465467  1923
PROGRESS-MS 33          
1 68319U 26058A   26085.42232068  .00012562  00000+0  23936-3 0  9997
2 68319  51.6341 349.6418 0006244 234.7318 125.3087 15.48556416   379
CENTISPACE-1 OBJECT A   
1 68350U 26060A   26085.49991331  .00000016  00000+0  33329-4 0  9996
2 68350  54.9829  13.0452 0012729 301.1186  58.8564 14.74886849   574
CENTISPACE-1 OBJECT B   
1 68351U 26060B   26085.49984115  .00000016  00000+0  33361-4 0  9995
2 68351  54.9834  13.0446 0012921 301.6406  58.3332 14.74920000   574
CENTISPACE-1 OBJECT C   
1 68352U 26060C   26085.43160887  .00000019  00000+0  33678-4 0  9996
2 68352  54.9836  13.3193 0012384 307.9948  51.9932 14.75104899   567
CENTISPACE-1 OBJECT D   
1 68353U 26060D   26085.43149453  .00000020  00000+0  33684-4 0  9992
2 68353  54.9857  13.3236 0012286 307.6948  52.2937 14.75149249   564
CENTISPACE-1 OBJECT E   
1 68354U 26060E   26085.43134522  .00000020  00000+0  33712-4 0  9996
2 68354  54.9769  13.3233 0012807 307.1240  52.8588 14.75205506   560
CENTISPACE-1 OBJECT F   
1 68355U 26060F   26085.29576464  .00000023  00000+0  34213-4 0  9996
2 68355  54.9787  13.8696 0013551 307.0302  52.9458 14.75232431   546
CENTISPACE-1 OBJECT G   
1 68356U 26060G   26085.43107219  .00000021  00000+0  33823-4 0  9995
2 68356  54.9884  13.3177 0013657 308.7286  51.2492 14.75314071   563
CENTISPACE-1 OBJECT H   
1 68357U 26060H   26084.61780387  .00000019  00000+0  33492-4 0  9997
2 68357  54.9848  16.6351 0014470 304.4277  55.5354 14.75425125   445
CENTISPACE-1 OBJECT J   
1 68358U 26060J   26084.61779005  .00000017  00000+0  33263-4 0  9997
2 68358  54.9877  16.6351 0013871 306.1411  53.8304 14.75435012   443
CENTISPACE-1 OBJECT K   
1 68359U 26060K   26085.43059819  .00000022  00000+0  33866-4 0  9998
2 68359  54.9796  13.3155 0014370 307.5611  52.4083 14.75496961   564
